[{"name":"Lafayette House","address":"109 Washington Street","city":"Foxboro","state":"MA","zip":"02035","url_fragment":"\/lafayette-house-parking\/","distance":517,"relevancy":1},{"name":"Gillette Stadium: Lot 20","address":"Foxborough Norfolk County","city":"Foxborough","state":"MA","zip":"02035","url_fragment":"\/gillette-stadium-lot-20-parking\/","distance":3776,"relevancy":1},{"name":"P10S","address":"1 Patriot Pl","city":"Foxborough","state":"MA","zip":"02035","url_fragment":"\/p10s-parking\/","distance":4210,"relevancy":1},{"name":"Patriot Place","address":"2 Patriot Place","city":"Foxboro","state":"MA","zip":"02035","url_fragment":"\/patriot-place-parking\/","distance":4102,"relevancy":1},{"name":"Renaissance Boston Patriot Place Hotel & Spa","address":"28 Patriot Place","city":"Foxboro","state":"MA","zip":"02035","url_fragment":"\/renaissance-boston-patriot-place-hotel-spa-parking-1\/","distance":4273,"relevancy":1},{"name":"22","address":"Foxborough Norfolk County","city":"Foxborough","state":"MA","zip":"02035","url_fragment":"\/22-parking\/","distance":4608,"relevancy":1},{"name":"Gillette Stadium: Lot 23","address":"1 Foxborough","city":"Foxborough","state":"MA","zip":"02035","url_fragment":"\/gillette-stadium-lot-23-parking\/","distance":5030,"relevancy":1},{"name":"P2","address":"Foxborough Norfolk County","city":"Foxborough","state":"MA","zip":"02035","url_fragment":"\/p2-parking\/","distance":5564,"relevancy":1},{"name":"New England Patriots","address":"1 Patriot Place","city":"Foxboro","state":"MA","zip":"02035","url_fragment":"\/new-england-patriots-parking\/","distance":5250,"relevancy":1},{"name":"Gillette Stadium","address":"60 Washington St.","city":"Foxboro","state":"MA","zip":"02035","url_fragment":"\/gillette-stadium-parking\/","distance":5253,"relevancy":1}]